HULIANWANG DIGUI-81     
1 65313U 25187J   26066.11041792 -.00000088  00000+0  77054-4 0  9999
2 65313  50.0058 211.9271 0001054 143.1119 216.9826 13.29341521 26138
HULIANWANG DIGUI-82     
1 65817U 25220A   26066.17439890  .00000028  00000+0  31638-4 0  9993
2 65817  86.4897  78.3150 0002282  98.9611 261.1781 13.24421979 21419
HULIANWANG DIGUI-83     
1 65818U 25220B   26066.16689464  .00000020  00000+0  12285-4 0  9996
2 65818  86.4920  78.3483 0002271  99.1306 261.0085 13.24421164 21410
HULIANWANG DIGUI-84     
1 65819U 25220C   26066.15931214  .00000016  00000+0  23287-5 0  9999
2 65819  86.4858  78.2407 0002264  98.6435 261.4956 13.24421581 21419
HULIANWANG DIGUI-85     
1 65820U 25220D   26066.15171073  .00000028  00000+0  30894-4 0  9994
2 65820  86.4918  78.3384 0002262  99.5033 260.6357 13.24422096 21413
HULIANWANG DIGUI-86     
1 65821U 25220E   26066.14424550  .00000041  00000+0  60860-4 0  9996
2 65821  86.4897  78.2993 0002256  99.1192 261.0198 13.24420947 21411
HULIANWANG DIGUI-87     
1 65995U 25231A   26066.14682980 -.00000063  00000+0  13183-3 0  9993
2 65995  49.9992 181.8435 0000613 192.8259 167.2598 13.29330428 19311
HULIANWANG DIGUI-88     
1 65996U 25231B   26066.15520684 -.00000076  00000+0  10273-3 0  9998
2 65996  49.9979 181.8732 0000639 197.8849 162.2000 13.29329413 19310
HULIANWANG DIGUI-89     
1 65997U 25231C   26066.13847442 -.00000074  00000+0  10814-3 0  9990
2 65997  49.9957 181.7602 0000637 198.8767 161.2082 13.29330067 19316
HULIANWANG DIGUI-90     
1 65998U 25231D   26066.05494136 -.00000076  00000+0  10318-3 0  9991
2 65998  49.9986 182.0201 0000609 196.4002 163.6850 13.29330267 19303
HULIANWANG DIGUI-91     
1 65999U 25231E   26066.12176920 -.00000064  00000+0  12974-3 0  9995
2 65999  50.0005 181.7314 0000628 197.6609 162.4242 13.29330276 19310
HULIANWANG DIGUI-92     
1 66000U 25231F   26066.11340527 -.00000071  00000+0  11370-3 0  9991
2 66000  50.0046 181.7337 0000631 198.1587 161.9263 13.29330778 19313
HULIANWANG DIGUI-93     
1 66001U 25231G   26066.09673360 -.00000073  00000+0  10925-3 0  9990
2 66001  50.0013 181.6134 0000621 197.8562 162.2288 13.29329821 19318
HULIANWANG DIGUI-94     
1 66002U 25231H   26066.10505348 -.00000074  00000+0  10695-3 0  9998
2 66002  50.0052 181.7018 0000637 198.5504 161.5345 13.29330998 19318
HULIANWANG DIGUI-95     
1 66003U 25231J   26066.08852959 -.00000077  00000+0  10189-3 0  9990
2 66003  50.0025 181.5850 0000640 195.0937 164.9916 13.29325883 19315
HULIANWANG DIGUI-96     
1 66412U 25258A   26066.03682614 -.00000066  00000+0  12484-3 0  9995
2 66412  50.0047 302.0047 0000408 102.6023 257.4895 13.29331581 16147
