[{"OBJECT_NAME":"HULIANWANG DIGUI-81","OBJECT_ID":"2025-187J","EPOCH":"2026-03-07T02:39:00.108288","MEAN_MOTION":13.29341521,"ECCENTRICITY":0.0001054,"INCLINATION":50.0058,"RA_OF_ASC_NODE":211.9271,"ARG_OF_PERICENTER":143.1119,"MEAN_ANOMALY":216.9826,"EPHEMERIS_TYPE":0,"CLASSIFICATION_TYPE":"U","NORAD_CAT_ID":65313,"ELEMENT_SET_NO":999,"REV_AT_EPOCH":2613,"BSTAR":7.7054e-5,"MEAN_MOTION_DOT":-8.8e-7,"MEAN_MOTION_DDOT":0},{"OBJECT_NAME":"HULIANWANG DIGUI-82","OBJECT_ID":"2025-220A","EPOCH":"2026-03-07T04:11:08.064960","MEAN_MOTION":13.24421979,"ECCENTRICITY":0.0002282,"INCLINATION":86.4897,"RA_OF_ASC_NODE":78.315,"ARG_OF_PERICENTER":98.9611,"MEAN_ANOMALY":261.1781,"EPHEMERIS_TYPE":0,"CLASSIFICATION_TYPE":"U","NORAD_CAT_ID":65817,"ELEMENT_SET_NO":999,"REV_AT_EPOCH":2141,"BSTAR":3.1638e-5,"MEAN_MOTION_DOT":2.8e-7,"MEAN_MOTION_DDOT":0},{"OBJECT_NAME":"HULIANWANG DIGUI-83","OBJECT_ID":"2025-220B","EPOCH":"2026-03-07T04:00:19.696896","MEAN_MOTION":13.24421164,"ECCENTRICITY":0.0002271,"INCLINATION":86.492,"RA_OF_ASC_NODE":78.3483,"ARG_OF_PERICENTER":99.1306,"MEAN_ANOMALY":261.0085,"EPHEMERIS_TYPE":0,"CLASSIFICATION_TYPE":"U","NORAD_CAT_ID":65818,"ELEMENT_SET_NO":999,"REV_AT_EPOCH":2141,"BSTAR":1.2285e-5,"MEAN_MOTION_DOT":2.0e-7,"MEAN_MOTION_DDOT":0},{"OBJECT_NAME":"HULIANWANG DIGUI-84","OBJECT_ID":"2025-220C","EPOCH":"2026-03-07T03:49:24.568896","MEAN_MOTION":13.24421581,"ECCENTRICITY":0.0002264,"INCLINATION":86.4858,"RA_OF_ASC_NODE":78.2407,"ARG_OF_PERICENTER":98.6435,"MEAN_ANOMALY":261.4956,"EPHEMERIS_TYPE":0,"CLASSIFICATION_TYPE":"U","NORAD_CAT_ID":65819,"ELEMENT_SET_NO":999,"REV_AT_EPOCH":2141,"BSTAR":2.3287e-6,"MEAN_MOTION_DOT":1.6e-7,"MEAN_MOTION_DDOT":0},{"OBJECT_NAME":"HULIANWANG DIGUI-85","OBJECT_ID":"2025-220D","EPOCH":"2026-03-07T03:38:27.807072","MEAN_MOTION":13.24422096,"ECCENTRICITY":0.0002262,"INCLINATION":86.4918,"RA_OF_ASC_NODE":78.3384,"ARG_OF_PERICENTER":99.5033,"MEAN_ANOMALY":260.6357,"EPHEMERIS_TYPE":0,"CLASSIFICATION_TYPE":"U","NORAD_CAT_ID":65820,"ELEMENT_SET_NO":999,"REV_AT_EPOCH":2141,"BSTAR":3.0894e-5,"MEAN_MOTION_DOT":2.8e-7,"MEAN_MOTION_DDOT":0},{"OBJECT_NAME":"HULIANWANG DIGUI-86","OBJECT_ID":"2025-220E","EPOCH":"2026-03-07T03:27:42.811200","MEAN_MOTION":13.24420947,"ECCENTRICITY":0.0002256,"INCLINATION":86.4897,"RA_OF_ASC_NODE":78.2993,"ARG_OF_PERICENTER":99.1192,"MEAN_ANOMALY":261.0198,"EPHEMERIS_TYPE":0,"CLASSIFICATION_TYPE":"U","NORAD_CAT_ID":65821,"ELEMENT_SET_NO":999,"REV_AT_EPOCH":2141,"BSTAR":6.086e-5,"MEAN_MOTION_DOT":4.1e-7,"MEAN_MOTION_DDOT":0},{"OBJECT_NAME":"HULIANWANG DIGUI-87","OBJECT_ID":"2025-231A","EPOCH":"2026-03-07T03:31:26.094720","MEAN_MOTION":13.29330428,"ECCENTRICITY":6.13e-5,"INCLINATION":49.9992,"RA_OF_ASC_NODE":181.8435,"ARG_OF_PERICENTER":192.8259,"MEAN_ANOMALY":167.2598,"EPHEMERIS_TYPE":0,"CLASSIFICATION_TYPE":"U","NORAD_CAT_ID":65995,"ELEMENT_SET_NO":999,"REV_AT_EPOCH":1931,"BSTAR":0.00013183,"MEAN_MOTION_DOT":-6.3e-7,"MEAN_MOTION_DDOT":0},{"OBJECT_NAME":"HULIANWANG DIGUI-88","OBJECT_ID":"2025-231B","EPOCH":"2026-03-07T03:43:29.870976","MEAN_MOTION":13.29329413,"ECCENTRICITY":6.39e-5,"INCLINATION":49.9979,"RA_OF_ASC_NODE":181.8732,"ARG_OF_PERICENTER":197.8849,"MEAN_ANOMALY":162.2,"EPHEMERIS_TYPE":0,"CLASSIFICATION_TYPE":"U","NORAD_CAT_ID":65996,"ELEMENT_SET_NO":999,"REV_AT_EPOCH":1931,"BSTAR":0.00010273,"MEAN_MOTION_DOT":-7.6e-7,"MEAN_MOTION_DDOT":0},{"OBJECT_NAME":"HULIANWANG DIGUI-89","OBJECT_ID":"2025-231C","EPOCH":"2026-03-07T03:19:24.189888","MEAN_MOTION":13.29330067,"ECCENTRICITY":6.37e-5,"INCLINATION":49.9957,"RA_OF_ASC_NODE":181.7602,"ARG_OF_PERICENTER":198.8767,"MEAN_ANOMALY":161.2082,"EPHEMERIS_TYPE":0,"CLASSIFICATION_TYPE":"U","NORAD_CAT_ID":65997,"ELEMENT_SET_NO":999,"REV_AT_EPOCH":1931,"BSTAR":0.00010814,"MEAN_MOTION_DOT":-7.4e-7,"MEAN_MOTION_DDOT":0},{"OBJECT_NAME":"HULIANWANG DIGUI-90","OBJECT_ID":"2025-231D","EPOCH":"2026-03-07T01:19:06.933504","MEAN_MOTION":13.29330267,"ECCENTRICITY":6.09e-5,"INCLINATION":49.9986,"RA_OF_ASC_NODE":182.0201,"ARG_OF_PERICENTER":196.4002,"MEAN_ANOMALY":163.685,"EPHEMERIS_TYPE":0,"CLASSIFICATION_TYPE":"U","NORAD_CAT_ID":65998,"ELEMENT_SET_NO":999,"REV_AT_EPOCH":1930,"BSTAR":0.00010318,"MEAN_MOTION_DOT":-7.6e-7,"MEAN_MOTION_DDOT":0},{"OBJECT_NAME":"HULIANWANG DIGUI-91","OBJECT_ID":"2025-231E","EPOCH":"2026-03-07T02:55:20.858880","MEAN_MOTION":13.29330276,"ECCENTRICITY":6.28e-5,"INCLINATION":50.0005,"RA_OF_ASC_NODE":181.7314,"ARG_OF_PERICENTER":197.6609,"MEAN_ANOMALY":162.4242,"EPHEMERIS_TYPE":0,"CLASSIFICATION_TYPE":"U","NORAD_CAT_ID":65999,"ELEMENT_SET_NO":999,"REV_AT_EPOCH":1931,"BSTAR":0.00012974,"MEAN_MOTION_DOT":-6.4e-7,"MEAN_MOTION_DDOT":0},{"OBJECT_NAME":"HULIANWANG DIGUI-92","OBJECT_ID":"2025-231F","EPOCH":"2026-03-07T02:43:18.215328","MEAN_MOTION":13.29330778,"ECCENTRICITY":6.31e-5,"INCLINATION":50.0046,"RA_OF_ASC_NODE":181.7337,"ARG_OF_PERICENTER":198.1587,"MEAN_ANOMALY":161.9263,"EPHEMERIS_TYPE":0,"CLASSIFICATION_TYPE":"U","NORAD_CAT_ID":66000,"ELEMENT_SET_NO":999,"REV_AT_EPOCH":1931,"BSTAR":0.0001137,"MEAN_MOTION_DOT":-7.1e-7,"MEAN_MOTION_DDOT":0},{"OBJECT_NAME":"HULIANWANG DIGUI-93","OBJECT_ID":"2025-231G","EPOCH":"2026-03-07T02:19:17.783040","MEAN_MOTION":13.29329821,"ECCENTRICITY":6.21e-5,"INCLINATION":50.0013,"RA_OF_ASC_NODE":181.6134,"ARG_OF_PERICENTER":197.8562,"MEAN_ANOMALY":162.2288,"EPHEMERIS_TYPE":0,"CLASSIFICATION_TYPE":"U","NORAD_CAT_ID":66001,"ELEMENT_SET_NO":999,"REV_AT_EPOCH":1931,"BSTAR":0.00010925,"MEAN_MOTION_DOT":-7.3e-7,"MEAN_MOTION_DDOT":0},{"OBJECT_NAME":"HULIANWANG DIGUI-94","OBJECT_ID":"2025-231H","EPOCH":"2026-03-07T02:31:16.620672","MEAN_MOTION":13.29330998,"ECCENTRICITY":6.37e-5,"INCLINATION":50.0052,"RA_OF_ASC_NODE":181.7018,"ARG_OF_PERICENTER":198.5504,"MEAN_ANOMALY":161.5345,"EPHEMERIS_TYPE":0,"CLASSIFICATION_TYPE":"U","NORAD_CAT_ID":66002,"ELEMENT_SET_NO":999,"REV_AT_EPOCH":1931,"BSTAR":0.00010695,"MEAN_MOTION_DOT":-7.4e-7,"MEAN_MOTION_DDOT":0},{"OBJECT_NAME":"HULIANWANG DIGUI-95","OBJECT_ID":"2025-231J","EPOCH":"2026-03-07T02:07:28.956576","MEAN_MOTION":13.29325883,"ECCENTRICITY":6.4e-5,"INCLINATION":50.0025,"RA_OF_ASC_NODE":181.585,"ARG_OF_PERICENTER":195.0937,"MEAN_ANOMALY":164.9916,"EPHEMERIS_TYPE":0,"CLASSIFICATION_TYPE":"U","NORAD_CAT_ID":66003,"ELEMENT_SET_NO":999,"REV_AT_EPOCH":1931,"BSTAR":0.00010189,"MEAN_MOTION_DOT":-7.7e-7,"MEAN_MOTION_DDOT":0},{"OBJECT_NAME":"HULIANWANG DIGUI-96","OBJECT_ID":"2025-258A","EPOCH":"2026-03-07T00:53:01.778496","MEAN_MOTION":13.29331581,"ECCENTRICITY":4.08e-5,"INCLINATION":50.0047,"RA_OF_ASC_NODE":302.0047,"ARG_OF_PERICENTER":102.6023,"MEAN_ANOMALY":257.4895,"EPHEMERIS_TYPE":0,"CLASSIFICATION_TYPE":"U","NORAD_CAT_ID":66412,"ELEMENT_SET_NO":999,"REV_AT_EPOCH":1614,"BSTAR":0.00012484,"MEAN_MOTION_DOT":-6.6e-7,"MEAN_MOTION_DDOT":0}]
